{
    "links": {
        "self": "http://www.neowsapp.com/rest/v1/neo/3392374?api_key=iIulBulltgU6a56xZRHN4H3l9WmuAYTsLGpBGhQ2"
    },
    "id": "3392374",
    "neo_reference_id": "3392374",
    "name": "(2007 VD8)",
    "designation": "2007 VD8",
    "nasa_jpl_url": "http://ssd.jpl.nasa.gov/sbdb.cgi?sstr=3392374",
    "absolute_magnitude_h": 27.9,
    "estimated_diameter": {
        "kilometers": {
            "estimated_diameter_min": 0.0069912523,
            "estimated_diameter_max": 0.0156329154
        },
        "meters": {
            "estimated_diameter_min": 6.9912523225,
            "estimated_diameter_max": 15.6329154409
        },
        "miles": {
            "estimated_diameter_min": 0.0043441614,
            "estimated_diameter_max": 0.0097138403
        },
        "feet": {
            "estimated_diameter_min": 22.9371802696,
            "estimated_diameter_max": 51.289094295
        }
    },
    "is_potentially_hazardous_asteroid": false,
    "close_approach_data": [
        {
            "close_approach_date": "2007-10-31",
            "close_approach_date_full": "2007-Oct-31 18:59",
            "epoch_date_close_approach": 1193857140000,
            "relative_velocity": {
                "kilometers_per_second": "11.2083896754",
                "kilometers_per_hour": "40350.2028315347",
                "miles_per_hour": "25072.0468649611"
            },
            "miss_distance": {
                "astronomical": "0.0139014643",
                "lunar": "5.4076696127",
                "kilometers": "2079629.449161041",
                "miles": "1292221.8185867258"
            },
            "orbiting_body": "Earth"
        }
    ],
    "orbital_data": {
        "orbit_id": "6",
        "orbit_determination_date": "2017-04-06 09:05:22",
        "first_observation_date": "2007-11-05",
        "last_observation_date": "2007-11-05",
        "data_arc_in_days": null,
        "observations_used": 11,
        "orbit_uncertainty": "9",
        "minimum_orbit_intersection": ".00754573",
        "jupiter_tisserand_invariant": "3.336",
        "epoch_osculation": "2454409.5",
        "eccentricity": ".5934035232332315",
        "semi_major_axis": "2.29380804860166",
        "inclination": "3.148611161209156",
        "ascending_node_longitude": "43.59920846865141",
        "orbital_period": "1268.919394430685",
        "perihelion_distance": ".9326542709406914",
        "perihelion_argument": "318.5387859649837",
        "aphelion_distance": "3.654961826262629",
        "perihelion_time": "2454378.596447708875",
        "mean_anomaly": "8.767522092919451",
        "mean_motion": ".2837059639722176",
        "equinox": "J2000",
        "orbit_class": {
            "orbit_class_type": "APO",
            "orbit_class_description": "Near-Earth asteroid orbits which cross the Earth’s orbit similar to that of 1862 Apollo",
            "orbit_class_range": "a (semi-major axis) > 1.0 AU; q (perihelion) < 1.017 AU"
        }
    },
    "is_sentry_object": false
}